{
    "links": {
        "self": "http://www.neowsapp.com/rest/v1/neo/3385161?api_key=iIulBulltgU6a56xZRHN4H3l9WmuAYTsLGpBGhQ2"
    },
    "id": "3385161",
    "neo_reference_id": "3385161",
    "name": "(2007 RN133)",
    "designation": "2007 RN133",
    "nasa_jpl_url": "http://ssd.jpl.nasa.gov/sbdb.cgi?sstr=3385161",
    "absolute_magnitude_h": 25.2,
    "estimated_diameter": {
        "kilometers": {
            "estimated_diameter_min": 0.0242412481,
            "estimated_diameter_max": 0.0542050786
        },
        "meters": {
            "estimated_diameter_min": 24.2412481101,
            "estimated_diameter_max": 54.2050786336
        },
        "miles": {
            "estimated_diameter_min": 0.0150628086,
            "estimated_diameter_max": 0.0336814639
        },
        "feet": {
            "estimated_diameter_min": 79.5316564495,
            "estimated_diameter_max": 177.8381901842
        }
    },
    "is_potentially_hazardous_asteroid": false,
    "close_approach_data": [
        {
            "close_approach_date": "2007-09-19",
            "close_approach_date_full": "2007-Sep-19 19:02",
            "epoch_date_close_approach": 1190228520000,
            "relative_velocity": {
                "kilometers_per_second": "19.1986669589",
                "kilometers_per_hour": "69115.2010519532",
                "miles_per_hour": "42945.4981203095"
            },
            "miss_distance": {
                "astronomical": "0.0331550135",
                "lunar": "12.8973002515",
                "kilometers": "4959919.399421245",
                "miles": "3081951.002833381"
            },
            "orbiting_body": "Earth"
        }
    ],
    "orbital_data": {
        "orbit_id": "8",
        "orbit_determination_date": "2017-04-06 09:05:59",
        "first_observation_date": "2007-09-15",
        "last_observation_date": "2007-09-17",
        "data_arc_in_days": 2,
        "observations_used": 26,
        "orbit_uncertainty": "8",
        "minimum_orbit_intersection": ".0331528",
        "jupiter_tisserand_invariant": "3.268",
        "epoch_osculation": "2454360.5",
        "eccentricity": ".6618307404670379",
        "semi_major_axis": "2.225189515250522",
        "inclination": "18.59528285840101",
        "ascending_node_longitude": "351.6644497918539",
        "orbital_period": "1212.408393393867",
        "perihelion_distance": ".7524906906927797",
        "perihelion_argument": "75.25696266204177",
        "aphelion_distance": "3.697888339808264",
        "perihelion_time": "2454408.256332224586",
        "mean_anomaly": "345.8197289836265",
        "mean_motion": ".2969296500762917",
        "equinox": "J2000",
        "orbit_class": {
            "orbit_class_type": "APO",
            "orbit_class_description": "Near-Earth asteroid orbits which cross the Earth’s orbit similar to that of 1862 Apollo",
            "orbit_class_range": "a (semi-major axis) > 1.0 AU; q (perihelion) < 1.017 AU"
        }
    },
    "is_sentry_object": false
}